From: horizons@ssd.jpl.nasa.gov (Horizons Ephemeris System)
Subject: [Horizons] SMALL BODY #C(500@10)_T(319P/Catalina-McNaught) (1/1)
Date: March 1, 2021 at 1:23:08 PM PST

Automated mail xmit by MAIL_REQUEST, PID= 2301 Mon Mar  1 13:23:08 2021
++++++++++++++++++++++++++++++++ (part 1 of 1)  +++++++++++++++++++++++++++++++
*******************************************************************************
JPL/HORIZONS               319P/Catalina-McNaught          2021-Mar-01 13:23:07
Rec #:90001232 (+COV) Soln.date: 2016-Apr-25_12:42:52    # obs: 369 (2008-2016)

IAU76/J2000 helio. ecliptic osc. elements (au, days, deg., period=Julian yrs):

 EPOCH=  2456558.5 ! 2013-Sep-23.0000000 (TDB)    RMSW= n.a.
  EC= .6649928582060213   QR= 1.19698516661724    TP= 2457205.4243635242
  OM= 111.3665624087181   W= 203.6802528999902    IN= 15.07420589928586
  A= 3.573013877278344    MA= 265.5927109890482   ADIST= 5.949042587939449
  PER= 6.753987753105     N= .145932495           ANGMOM= .024284659
  DAN= 5.09713            DDN= 1.23864            L= 314.3176477
  B= -5.9956199           MOID= .20096099         TP= 2015-Jul-01.9243635242

Comet physical (GM= km^3/s^2; RAD= km):
  GM= n.a.                RAD= n.a.
  M1=  17.      M2=  n.a.     k1=  9.     k2= n.a.     PHCOF= n.a.

COMET comments 
1: soln ref.= JPL#33, data arc: 2008-05-02 to 2016-01-04
2: k1=9.;
*******************************************************************************


*******************************************************************************
Ephemeris / MAIL_REQUEST Mon Mar  1 13:23:07 2021 Pasadena, USA  / Horizons
*******************************************************************************
Target body name: 319P/Catalina-McNaught          {source: JPL#33}
Center body name: Sun (10)                        {source: DE431}
Center-site name: BODY CENTER
*******************************************************************************
Start time      : A.D. 1990-Jan-01 00:00:00.0000 TDB
Stop  time      : A.D. 2020-Dec-31 00:00:00.0000 TDB
Step-size       : 10080 minutes
*******************************************************************************
Center geodetic : 0.00000000,0.00000000,0.0000000 {E-lon(deg),Lat(deg),Alt(km)}
Center cylindric: 0.00000000,0.00000000,0.0000000 {E-lon(deg),Dxy(km),Dz(km)}
Center radii    : 696000.0 x 696000.0 x 696000.0 k{Equator, meridian, pole}    
Small perturbers: Yes                             {source: SB431-N16}
Output units    : AU-D
Output type     : GEOMETRIC cartesian states
Output format   : 6 (LT, range, and range-rate)
Reference frame : Ecliptic of J2000.0
*******************************************************************************
Initial IAU76/J2000 heliocentric ecliptic osculating elements (au, days, deg.):
 EPOCH=  2456558.5 ! 2013-Sep-23.0000000 (TDB)    RMSW= n.a.                  
  EC= .6649928582060213   QR= 1.19698516661724    TP= 2457205.4243635242      
  OM= 111.3665624087181   W= 203.6802528999902    IN= 15.07420589928586       
 Equivalent ICRF heliocentric equatorial cartesian coordinates (au, au/d):
  X=-4.562791970753850E+00  Y= 1.124616795877340E+00  Z= 1.558325286574398E+00
 VX= 1.791150483323547E-03 VY=-5.357181993793932E-03 VZ=-2.193291349004412E-03
Comet physical (GM= km^3/s^2; RAD= km):                                        
  GM= n.a.                RAD= n.a.                                           
  M1=  17.      M2=  n.a.     k1=  9.     k2= n.a.     PHCOF= n.a.            
*******************************************************************************
           JDTDB,            Calendar Date (TDB),                     LT,                     RG,                     RR,
**************************************************************************************************************************
$$SOE
2454542.500000000, A.D. 2008-Mar-17 00:00:00.0000,  1.440224333387143E-02,  2.493671131728196E+00, -7.745601338508359E-03,
2454549.500000000, A.D. 2008-Mar-24 00:00:00.0000,  1.408773988058047E-02,  2.439216546833353E+00, -7.812334342549101E-03,
2454556.500000000, A.D. 2008-Mar-31 00:00:00.0000,  1.377060570753070E-02,  2.384306466932201E+00, -7.875628168951408E-03,
2454563.500000000, A.D. 2008-Apr-07 00:00:00.0000,  1.345099455312036E-02,  2.328967511003232E+00, -7.934735334360083E-03,
2454570.500000000, A.D. 2008-Apr-14 00:00:00.0000,  1.312909299642686E-02,  2.273231984212271E+00, -7.988775004909614E-03,
2454577.500000000, A.D. 2008-Apr-21 00:00:00.0000,  1.280512631861385E-02,  2.217138892783643E+00, -8.036709175765894E-03,
2454584.500000000, A.D. 2008-Apr-28 00:00:00.0000,  1.247936540177590E-02,  2.160735138498112E+00, -8.077314870303090E-03,
2454591.500000000, A.D. 2008-May-05 00:00:00.0000,  1.215213488513687E-02,  2.104076930894846E+00, -8.109149155735408E-03,
2454598.500000000, A.D. 2008-May-12 00:00:00.0000,  1.182382288227408E-02,  2.047231469756623E+00, -8.130507823051709E-03,
2454605.500000000, A.D. 2008-May-19 00:00:00.0000,  1.149489242090668E-02,  1.990278925847796E+00, -8.139381297518912E-03,
2454612.500000000, A.D. 2008-May-26 00:00:00.0000,  1.116589478959670E-02,  1.933314751823934E+00, -8.133403730746553E-03,
2454619.500000000, A.D. 2008-Jun-02 00:00:00.0000,  1.083748509880561E-02,  1.876452376545251E+00, -8.109794701008328E-03,
2454626.500000000, A.D. 2008-Jun-09 00:00:00.0000,  1.051044031019619E-02,  1.819826326753448E+00, -8.065295789659758E-03,
2454633.500000000, A.D. 2008-Jun-16 00:00:00.0000,  1.018567989001579E-02,  1.763595803094181E+00, -7.996104766960126E-03,
2454640.500000000, A.D. 2008-Jun-23 00:00:00.0000,  9.864289096438160E-03,  1.707948712195300E+00, -7.897812144793443E-03,
2454647.500000000, A.D. 2008-Jun-30 00:00:00.0000,  9.547544652926830E-03,  1.653106111871924E+00, -7.765348322503932E-03,
2454654.500000000, A.D. 2008-Jul-07 00:00:00.0000,  9.236942132220335E-03,  1.599326952516504E+00, -7.592954520544658E-03,
2454661.500000000, A.D. 2008-Jul-14 00:00:00.0000,  8.934223711650119E-03,  1.546912882783148E+00, -7.374197479918470E-03,
2454668.500000000, A.D. 2008-Jul-21 00:00:00.0000,  8.641403981993133E-03,  1.496212718251919E+00, -7.102056630768896E-03,
2454675.500000000, A.D. 2008-Jul-28 00:00:00.0000,  8.360790152140883E-03,  1.447625939758839E+00, -6.769120783067335E-03,
2454682.500000000, A.D. 2008-Aug-04 00:00:00.0000,  8.094991399393396E-03,  1.401604312349104E+00, -6.367935701053391E-03,
2454689.500000000, A.D. 2008-Aug-11 00:00:00.0000,  7.846910331273325E-03,  1.358650406936021E+00, -5.891549335206409E-03,
2454696.500000000, A.D. 2008-Aug-18 00:00:00.0000,  7.619707778122113E-03,  1.319311504328005E+00, -5.334288520568733E-03,
2454703.500000000, A.D. 2008-Aug-25 00:00:00.0000,  7.416731578108168E-03,  1.284167264734978E+00, -4.692757320515887E-03,
2454710.500000000, A.D. 2008-Sep-01 00:00:00.0000,  7.241401651845908E-03,  1.253809829055497E+00, -3.966981235483415E-03,
2454717.500000000, A.D. 2008-Sep-08 00:00:00.0000,  7.097048565635852E-03,  1.228815866968264E+00, -3.161526704932828E-03,
2454724.500000000, A.D. 2008-Sep-15 00:00:00.0000,  6.986711732331002E-03,  1.209711636495257E+00, -2.286326922934253E-03,
2454731.500000000, A.D. 2008-Sep-22 00:00:00.0000,  6.912915544124864E-03,  1.196934222595546E+00, -1.356895456119417E-03,
2454738.500000000, A.D. 2008-Sep-29 00:00:00.0000,  6.877453862088095E-03,  1.190794222685279E+00, -3.936683017282258E-04,
2454745.500000000, A.D. 2008-Oct-06 00:00:00.0000,  6.881220243255649E-03,  1.191446351369046E+00,  5.795886442126654E-04,
2454752.500000000, A.D. 2008-Oct-13 00:00:00.0000,  6.924118164112278E-03,  1.198873896118256E+00,  1.538082566707258E-03,
2454759.500000000, A.D. 2008-Oct-20 00:00:00.0000,  7.005070914818104E-03,  1.212890430403185E+00,  2.458527333247378E-03,
2454766.500000000, A.D. 2008-Oct-27 00:00:00.0000,  7.122128908746012E-03,  1.233158393763417E+00,  3.321338906306831E-03,
2454773.500000000, A.D. 2008-Nov-03 00:00:00.0000,  7.272651144295534E-03,  1.259220510946944E+00,  4.112055993397421E-03,
2454780.500000000, A.D. 2008-Nov-10 00:00:00.0000,  7.453525134933634E-03,  1.290537871616302E+00,  4.821818986957537E-03,
2454787.500000000, A.D. 2008-Nov-17 00:00:00.0000,  7.661388587825725E-03,  1.326528312813702E+00,  5.447014370209703E-03,
2454794.500000000, A.D. 2008-Nov-24 00:00:00.0000,  7.892824461888119E-03,  1.366600192215877E+00,  5.988367331938757E-03,
2454801.500000000, A.D. 2008-Dec-01 00:00:00.0000,  8.144513586078319E-03,  1.410178813171890E+00,  6.449799007498690E-03,
2454808.500000000, A.D. 2008-Dec-08 00:00:00.0000,  8.413340726792220E-03,  1.456724789703665E+00,  6.837300236470648E-03,
2454815.500000000, A.D. 2008-Dec-15 00:00:00.0000,  8.696458175744095E-03,  1.505745056406106E+00,  7.157973210993393E-03,
2454822.500000000, A.D. 2008-Dec-22 00:00:00.0000,  8.991315119591663E-03,  1.556797953640042E+00,  7.419300827654262E-03,
2454829.500000000, A.D. 2008-Dec-29 00:00:00.0000,  9.295662100219622E-03,  1.609493999806384E+00,  7.628641112998081E-03,
2454836.500000000, A.D. 2009-Jan-05 00:00:00.0000,  9.607539023657598E-03,  1.663493815154625E+00,  7.792911750912145E-03,
2454843.500000000, A.D. 2009-Jan-12 00:00:00.0000,  9.925253498262725E-03,  1.718504371155418E+00,  7.918419539889133E-03,
2454850.500000000, A.D. 2009-Jan-19 00:00:00.0000,  1.024735446018759E-02,  1.774274423891919E+00,  8.010790780662412E-03,
2454857.500000000, A.D. 2009-Jan-26 00:00:00.0000,  1.057260436881848E-02,  1.830589699849145E+00,  8.074964926481859E-03,
2454864.500000000, A.D. 2009-Feb-02 00:00:00.0000,  1.089995201808088E-02,  1.887268188337459E+00,  8.115228693865342E-03,
2454871.500000000, A.D. 2009-Feb-09 00:00:00.0000,  1.122850726021297E-02,  1.944155765049616E+00,  8.135273410280416E-03,
2454878.500000000, A.D. 2009-Feb-16 00:00:00.0000,  1.155751823529810E-02,  2.001122249476524E+00,  8.138259797304922E-03,
2454885.500000000, A.D. 2009-Feb-23 00:00:00.0000,  1.188635124379323E-02,  2.058057919943579E+00,  8.126883223619678E-03,
